{
  "links" : {
    "next" : "https://api.nasa.gov/neo/rest/v1/neo/browse?page=10&size=20&api_key=jqAGvNAwUIBu4fl9FSOjdm3V4F7hIglRzI6pdX9d",
    "prev" : "https://api.nasa.gov/neo/rest/v1/neo/browse?page=8&size=20&api_key=jqAGvNAwUIBu4fl9FSOjdm3V4F7hIglRzI6pdX9d",
    "self" : "https://api.nasa.gov/neo/rest/v1/neo/browse?page=9&size=20&api_key=jqAGvNAwUIBu4fl9FSOjdm3V4F7hIglRzI6pdX9d"
  },
  "page" : {
    "size" : 20,
    "total_elements" : 20750,
    "total_pages" : 1038,
    "number" : 9
  },
  "near_earth_objects" : [ {
    "links" : {
      "self" : "https://api.nasa.gov/neo/rest/v1/neo/3127408?api_key=jqAGvNAwUIBu4fl9FSOjdm3V4F7hIglRzI6pdX9d"
    },
    "neo_reference_id" : "3127408",
    "name" : "(2002 LZ45)",
    "designation" : "2002 LZ45",
    "nasa_jpl_url" : "http://ssd.jpl.nasa.gov/sbdb.cgi?sstr=3127408",
    "absolute_magnitude_h" : 23.0,
    "estimated_diameter" : {
      "kilometers" : {
        "estimated_diameter_min" : 0.0667659413,
        "estimated_diameter_max" : 0.1492931834
      },
      "meters" : {
        "estimated_diameter_min" : 66.7659413495,
        "estimated_diameter_max" : 149.2931834393
      },
      "miles" : {
        "estimated_diameter_min" : 0.0414864197,
        "estimated_diameter_max" : 0.0927664547
      },
      "feet" : {
        "estimated_diameter_min" : 219.0483710172,
        "estimated_diameter_max" : 489.807047955
      }
    },
    "is_potentially_hazardous_asteroid" : false,
    "close_approach_data" : [ {
      "close_approach_date" : "2002-06-24",
      "epoch_date_close_approach" : 1024902000000,
      "relative_velocity" : {
        "kilometers_per_second" : "15.268962894",
        "kilometers_per_hour" : "54968.2664184796",
        "miles_per_hour" : "34155.143097638"
      },
      "miss_distance" : {
        "astronomical" : "0.012785995",
        "lunar" : "4.9737520218",
        "kilometers" : "1912757.75",
        "miles" : "1188532.5"
      },
      "orbiting_body" : "Earth"
    } ],
    "orbital_data" : {
      "orbit_id" : "15",
      "orbit_determination_date" : "2017-04-06 09:15:05",
      "first_observation_date" : "2002-06-14",
      "last_observation_date" : "2002-06-24",
      "data_arc_in_days" : 10,
      "observations_used" : 125,
      "orbit_uncertainty" : "7",
      "minimum_orbit_intersection" : ".00610235",
      "jupiter_tisserand_invariant" : "3.275",
      "epoch_osculation" : "2458600.5",
      "eccentricity" : ".6374113917168188",
      "semi_major_axis" : "2.30750783716895",
      "inclination" : "6.165573059372623",
      "ascending_node_longitude" : "90.92173295532773",
      "orbital_period" : "1280.304299583034",
      "perihelion_distance" : ".836676055281623",
      "perihelion_argument" : "240.257866633007",
      "aphelion_distance" : "3.778339619056276",
      "perihelion_time" : "2458909.907730720200",
      "mean_anomaly" : "272.9997586546041",
      "mean_motion" : ".2811831531904126",
      "equinox" : "J2000",
      "orbit_class" : {
        "orbit_class_type" : "APO",
        "orbit_class_range" : "a (semi-major axis) > 1.0 AU; q (perihelion) < 1.017 AU",
        "orbit_class_description" : "Near-Earth asteroid orbits which cross the Earth’s orbit similar to that of 1862 Apollo"
      }
    },
    "is_sentry_object" : false
  }, {
    "links" : {
      "self" : "https://api.nasa.gov/neo/rest/v1/neo/3709286?api_key=jqAGvNAwUIBu4fl9FSOjdm3V4F7hIglRzI6pdX9d"
    },
    "neo_reference_id" : "3709286",
    "name" : "(2002 LX64)",
    "designation" : "2002 LX64",
    "nasa_jpl_url" : "http://ssd.jpl.nasa.gov/sbdb.cgi?sstr=3709286",
    "absolute_magnitude_h" : 21.356,
    "estimated_diameter" : {
      "kilometers" : {
        "estimated_diameter_min" : 0.1423491822,
        "estimated_diameter_max" : 0.3183024481
      },
      "meters" : {
        "estimated_diameter_min" : 142.3491822493,
        "estimated_diameter_max" : 318.3024480509
      },
      "miles" : {
        "estimated_diameter_min" : 0.0884516537,
        "estimated_diameter_max" : 0.1977839104
      },
      "feet" : {
        "estimated_diameter_min" : 467.0248910908,
        "estimated_diameter_max" : 1044.2994036635
      }
    },
    "is_potentially_hazardous_asteroid" : true,
    "close_approach_data" : [ {
      "close_approach_date" : "2002-06-01",
      "epoch_date_close_approach" : 1022914800000,
      "relative_velocity" : {
        "kilometers_per_second" : "14.6644089614",
        "kilometers_per_hour" : "52791.8722611761",
        "miles_per_hour" : "32802.8164058402"
      },
      "miss_distance" : {
        "astronomical" : "0.1332117899",
        "lunar" : "51.8193855286",
        "kilometers" : "19928200",
        "miles" : "12382810"
      },
      "orbiting_body" : "Earth"
    } ],
    "orbital_data" : {
      "orbit_id" : "3",
      "orbit_determination_date" : "2017-04-06 09:15:04",
      "first_observation_date" : "2002-06-13",
      "last_observation_date" : "2002-06-20",
      "data_arc_in_days" : 7,
      "observations_used" : 12,
      "orbit_uncertainty" : "9",
      "minimum_orbit_intersection" : ".0442831",
      "jupiter_tisserand_invariant" : "4.534",
      "epoch_osculation" : "2452442.5",
      "eccentricity" : ".5965674479206386",
      "semi_major_axis" : "1.405004624143743",
      "inclination" : "5.205089485098764",
      "ascending_node_longitude" : "285.5479102603595",
      "orbital_period" : "608.2961352954301",
      "perihelion_distance" : ".566824601201614",
      "perihelion_argument" : "230.6410176505759",
      "aphelion_distance" : "2.243184647085871",
      "perihelion_time" : "2452371.703265964310",
      "mean_anomaly" : "41.89871145650179",
      "mean_motion" : ".5918170100244998",
      "equinox" : "J2000",
      "orbit_class" : {
        "orbit_class_type" : "APO",
        "orbit_class_range" : "a (semi-major axis) > 1.0 AU; q (perihelion) < 1.017 AU",
        "orbit_class_description" : "Near-Earth asteroid orbits which cross the Earth’s orbit similar to that of 1862 Apollo"
      }
    },
    "is_sentry_object" : false
  }, {
    "links" : {
      "self" : "https://api.nasa.gov/neo/rest/v1/neo/3127412?api_key=jqAGvNAwUIBu4fl9FSOjdm3V4F7hIglRzI6pdX9d"
    },
    "neo_reference_id" : "3127412",
    "name" : "(2002 MX)",
    "designation" : "2002 MX",
    "nasa_jpl_url" : "http://ssd.jpl.nasa.gov/sbdb.cgi?sstr=3127412",
    "absolute_magnitude_h" : 21.7,
    "estimated_diameter" : {
      "kilometers" : {
        "estimated_diameter_min" : 0.1214940408,
        "estimated_diameter_max" : 0.2716689341
      },
      "meters" : {
        "estimated_diameter_min" : 121.4940407996,
        "estimated_diameter_max" : 271.6689340891
      },
      "miles" : {
        "estimated_diameter_min" : 0.0754928736,
        "estimated_diameter_max" : 0.1688071972
      },
      "feet" : {
        "estimated_diameter_min" : 398.6025088171,
        "estimated_diameter_max" : 891.3023057169
      }
    },
    "is_potentially_hazardous_asteroid" : true,
    "close_approach_data" : [ {
      "close_approach_date" : "2002-06-12",
      "epoch_date_close_approach" : 1023865200000,
      "relative_velocity" : {
        "kilometers_per_second" : "25.5766985956",
        "kilometers_per_hour" : "92076.1149441028",
        "miles_per_hour" : "57212.5170884621"
      },
      "miss_distance" : {
        "astronomical" : "0.0414866072",
        "lunar" : "16.1382904053",
        "kilometers" : "6206308",
        "miles" : "3856421"
      },
      "orbiting_body" : "Earth"
    } ],
    "orbital_data" : {
      "orbit_id" : "12",
      "orbit_determination_date" : "2017-04-06 09:15:03",
      "first_observation_date" : "2002-06-17",
      "last_observation_date" : "2002-07-05",
      "data_arc_in_days" : 18,
      "observations_used" : 35,
      "orbit_uncertainty" : "8",
      "minimum_orbit_intersection" : ".0149314",
      "jupiter_tisserand_invariant" : "2.913",
      "epoch_osculation" : "2452447.5",
      "eccentricity" : ".7965403555065996",
      "semi_major_axis" : "2.508943821620865",
      "inclination" : "1.962531306397874",
      "ascending_node_longitude" : "284.3024040127856",
      "orbital_period" : "1451.559466500748",
      "perihelion_distance" : ".5104688180008945",
      "perihelion_argument" : "237.5817060917389",
      "aphelion_distance" : "4.507418825240835",
      "perihelion_time" : "2452392.106164225629",
      "mean_anomaly" : "13.73817700135077",
      "mean_motion" : ".2480091297036879",
      "equinox" : "J2000",
      "orbit_class" : {
        "orbit_class_type" : "APO",
        "orbit_class_range" : "a (semi-major axis) > 1.0 AU; q (perihelion) < 1.017 AU",
        "orbit_class_description" : "Near-Earth asteroid orbits which cross the Earth’s orbit similar to that of 1862 Apollo"
      }
    },
    "is_sentry_object" : false
  } ]
}